[{"OBJECT_NAME":"ORBITER SN3","OBJECT_ID":"2023-084AE","EPOCH":"2026-03-09T23:12:21.976128","MEAN_MOTION":15.32943891,"ECCENTRICITY":0.00075889,"INCLINATION":97.61,"RA_OF_ASC_NODE":206.6768,"ARG_OF_PERICENTER":331.7947,"MEAN_ANOMALY":28.2883,"EPHEMERIS_TYPE":0,"CLASSIFICATION_TYPE":"U","NORAD_CAT_ID":56960,"ELEMENT_SET_NO":999,"REV_AT_EPOCH":15228,"BSTAR":0.00032835432,"MEAN_MOTION_DOT":0.00010378,"MEAN_MOTION_DDOT":0},{"OBJECT_NAME":"STARLINK-35128","OBJECT_ID":"2025-210G","EPOCH":"2026-03-09T23:14:35.134944","MEAN_MOTION":15.30200232,"ECCENTRICITY":0.00010941,"INCLINATION":53.1606,"RA_OF_ASC_NODE":305.7955,"ARG_OF_PERICENTER":85.1696,"MEAN_ANOMALY":274.943,"EPHEMERIS_TYPE":0,"CLASSIFICATION_TYPE":"U","NORAD_CAT_ID":65628,"ELEMENT_SET_NO":999,"REV_AT_EPOCH":2777,"BSTAR":0.0011599933,"MEAN_MOTION_DOT":0.00034155,"MEAN_MOTION_DDOT":0}]
